{
  "links" : {
    "next" : "https://api.nasa.gov/neo/rest/v1/feed?start_date=2010-03-16&end_date=2010-03-16&detailed=true&api_key=t0TVs3DtDT2H8Oy2Zy8m2eVrNsAVKAexjcZXUckd",
    "prev" : "https://api.nasa.gov/neo/rest/v1/feed?start_date=2010-03-14&end_date=2010-03-14&detailed=true&api_key=t0TVs3DtDT2H8Oy2Zy8m2eVrNsAVKAexjcZXUckd",
    "self" : "https://api.nasa.gov/neo/rest/v1/feed?start_date=2010-03-15&end_date=2010-03-15&detailed=true&api_key=t0TVs3DtDT2H8Oy2Zy8m2eVrNsAVKAexjcZXUckd"
  },
  "element_count" : 8,
  "near_earth_objects" : {
    "2010-03-15" : [ {
      "links" : {
        "self" : "https://api.nasa.gov/neo/rest/v1/neo/3597511?api_key=t0TVs3DtDT2H8Oy2Zy8m2eVrNsAVKAexjcZXUckd"
      },
      "neo_reference_id" : "3597511",
      "name" : "(2012 CC17)",
      "nasa_jpl_url" : "http://ssd.jpl.nasa.gov/sbdb.cgi?sstr=3597511",
      "absolute_magnitude_h" : 20.5,
      "estimated_diameter" : {
        "kilometers" : {
          "estimated_diameter_min" : 0.2111324448,
          "estimated_diameter_max" : 0.4721064988
        },
        "meters" : {
          "estimated_diameter_min" : 211.1324447897,
          "estimated_diameter_max" : 472.1064988055
        },
        "miles" : {
          "estimated_diameter_min" : 0.1311915784,
          "estimated_diameter_max" : 0.2933532873
        },
        "feet" : {
          "estimated_diameter_min" : 692.6917701639,
          "estimated_diameter_max" : 1548.9058855411
        }
      },
      "is_potentially_hazardous_asteroid" : false,
      "close_approach_data" : [ {
        "close_approach_date" : "2010-03-15",
        "epoch_date_close_approach" : 1268636400000,
        "relative_velocity" : {
          "kilometers_per_second" : "13.4217832654",
          "kilometers_per_hour" : "48318.4197555685",
          "miles_per_hour" : "30023.1869864531"
        },
        "miss_distance" : {
          "astronomical" : "0.2366903424",
          "lunar" : "92.0725402832",
          "kilometers" : "35408372",
          "miles" : "22001742"
        },
        "orbiting_body" : "Earth"
      } ],
      "orbital_data" : {
        "orbit_id" : "28",
        "orbit_determination_date" : "2017-04-06 08:51:01",
        "orbit_uncertainty" : "1",
        "minimum_orbit_intersection" : ".112896",
        "jupiter_tisserand_invariant" : "4.227",
        "epoch_osculation" : "2458000.5",
        "eccentricity" : ".3643869445923349",
        "semi_major_axis" : "1.621542248031395",
        "inclination" : "11.80515174166558",
        "ascending_node_longitude" : "343.5874422617926",
        "orbital_period" : "754.2074697961752",
        "perihelion_distance" : "1.030673422743849",
        "perihelion_argument" : "234.7468759437963",
        "aphelion_distance" : "2.212411073318941",
        "perihelion_time" : "2458316.963381464550",
        "mean_anomaly" : "208.9449894231001",
        "mean_motion" : ".477322241448086",
        "equinox" : "J2000"
      }
    }, {
      "links" : {
        "self" : "https://api.nasa.gov/neo/rest/v1/neo/3768619?api_key=t0TVs3DtDT2H8Oy2Zy8m2eVrNsAVKAexjcZXUckd"
      },
      "neo_reference_id" : "3768619",
      "name" : "(2017 CN1)",
      "nasa_jpl_url" : "http://ssd.jpl.nasa.gov/sbdb.cgi?sstr=3768619",
      "absolute_magnitude_h" : 19.8,
      "estimated_diameter" : {
        "kilometers" : {
          "estimated_diameter_min" : 0.2914439045,
          "estimated_diameter_max" : 0.6516883822
        },
        "meters" : {
          "estimated_diameter_min" : 291.4439045349,
          "estimated_diameter_max" : 651.6883821679
        },
        "miles" : {
          "estimated_diameter_min" : 0.1810947904,
          "estimated_diameter_max" : 0.4049402617
        },
        "feet" : {
          "estimated_diameter_min" : 956.1808197541,
          "estimated_diameter_max" : 2138.0853117517
        }
      },
      "is_potentially_hazardous_asteroid" : false,
      "close_approach_data" : [ {
        "close_approach_date" : "2010-03-15",
        "epoch_date_close_approach" : 1268636400000,
        "relative_velocity" : {
          "kilometers_per_second" : "24.8701154131",
          "kilometers_per_hour" : "89532.4154871949",
          "miles_per_hour" : "55631.9611675851"
        },
        "miss_distance" : {
          "astronomical" : "0.4017469158",
          "lunar" : "156.2795562744",
          "kilometers" : "60100484",
          "miles" : "37344712"
        },
        "orbiting_body" : "Earth"
      } ],
      "orbital_data" : {
        "orbit_id" : "18",
        "orbit_determination_date" : "2017-09-19 06:49:01",
        "orbit_uncertainty" : "3",
        "minimum_orbit_intersection" : ".0957247",
        "jupiter_tisserand_invariant" : "3.284",
        "epoch_osculation" : "2458000.5",
        "eccentricity" : ".6256506745464625",
        "semi_major_axis" : "2.30571701403278",
        "inclination" : "8.634052606300168",
        "ascending_node_longitude" : "60.47088104748106",
        "orbital_period" : "1278.814150591113",
        "perihelion_distance" : ".8631436088899158",
        "perihelion_argument" : "186.7055879310394",
        "aphelion_distance" : "3.748290419175644",
        "perihelion_time" : "2457870.709742236631",
        "mean_anomaly" : "36.53735984483361",
        "mean_motion" : ".2815108042349979",
        "equinox" : "J2000"
      }
    }, {
      "links" : {
        "self" : "https://api.nasa.gov/neo/rest/v1/neo/3672907?api_key=t0TVs3DtDT2H8Oy2Zy8m2eVrNsAVKAexjcZXUckd"
      },
      "neo_reference_id" : "3672907",
      "name" : "(2014 KV76)",
      "nasa_jpl_url" : "http://ssd.jpl.nasa.gov/sbdb.cgi?sstr=3672907",
      "absolute_magnitude_h" : 21.0,
      "estimated_diameter" : {
        "kilometers" : {
          "estimated_diameter_min" : 0.1677084622,
          "estimated_diameter_max" : 0.3750075218
        },
        "meters" : {
          "estimated_diameter_min" : 167.7084621628,
          "estimated_diameter_max" : 375.0075217981
        },
        "miles" : {
          "estimated_diameter_min" : 0.1042091748,
          "estimated_diameter_max" : 0.2330187988
        },
        "feet" : {
          "estimated_diameter_min" : 550.2246310023,
          "estimated_diameter_max" : 1230.3396778159
        }
      },
      "is_potentially_hazardous_asteroid" : false,
      "close_approach_data" : [ {
        "close_approach_date" : "2010-03-15",
        "epoch_date_close_approach" : 1268636400000,
        "relative_velocity" : {
          "kilometers_per_second" : "9.6895496576",
          "kilometers_per_hour" : "34882.3787672888",
          "miles_per_hour" : "21674.5536290412"
        },
        "miss_distance" : {
          "astronomical" : "0.1988300571",
          "lunar" : "77.3448944092",
          "kilometers" : "29744552",
          "miles" : "18482408"
        },
        "orbiting_body" : "Earth"
      } ],
      "orbital_data" : {
        "orbit_id" : "12",
        "orbit_determination_date" : "2017-04-06 08:40:17",
        "orbit_uncertainty" : "3",
        "minimum_orbit_intersection" : ".0607186",
        "jupiter_tisserand_invariant" : "6.869",
        "epoch_osculation" : "2458000.5",
        "eccentricity" : ".3582811924420946",
        "semi_major_axis" : ".8482991564735446",
        "inclination" : "12.75020072424815",
        "ascending_node_longitude" : "232.8171874235522",
        "orbital_period" : "285.3789788338696",
        "perihelion_distance" : ".5443695231445801",
        "perihelion_argument" : "157.7599795945442",
        "aphelion_distance" : "1.152228789802509",
        "perihelion_time" : "2458036.743875890416",
        "mean_anomaly" : "314.279059467287",
        "mean_motion" : "1.261480440749528",
        "equinox" : "J2000"
      }
    } ]
  }
}